{"type": "FeatureCollection", "features": [ {"type": "Feature", "properties": {"norad_id": 66564, "name": "STARLINK-35358", "group": "last-30-days", "lat": -42.3756960289966, "lon": -21.410517495381743, "alt_km": 400.4200306540097, "timestamp": "2025-12-23T16:57:11.059254+00:00", "meta": {"OBJECT_NAME": "STARLINK-35358", "OBJECT_ID": "2025-268H", "EPOCH": "2025-12-23T08:00:03.000384", "MEAN_MOTION": 15.5644936, "ECCENTRICITY": 0.00014697, "INCLINATION": 43.0001, "RA_OF_ASC_NODE": 59.049, "ARG_OF_PERICENTER": 272.1212, "MEAN_ANOMALY": 73.9952, "EPHEMERIS_TYPE": 0, "CLASSIFICATION_TYPE": "U", "NORAD_CAT_ID": 66564, "ELEMENT_SET_NO": 999, "REV_AT_EPOCH": 610, "BSTAR": -0.00084110116, "MEAN_MOTION_DOT": -0.00061005, "MEAN_MOTION_DDOT": 0}, "tle": {"line1": "1 66564U 25268H   25357.33336806 -.00061005  00000+0 -84110-3 0  9994", "line2": "2 66564  43.0001  59.0490 0001469 272.1212  73.9952 15.56449360  6106"}}, "geometry": {"type": "Point", "coordinates": [-21.410517495381743, -42.3756960289966]}}, {"type": "Feature", "properties": {"norad_id": 66565, "name": "STARLINK-35893", "group": "last-30-days", "lat": -42.081069575143445, "lon": -18.854195439185705, "alt_km": 400.36731674741895, "timestamp": "2025-12-23T16:57:11.059264+00:00", "meta": {"OBJECT_NAME": "STARLINK-35893", "OBJECT_ID": "2025-268J", "EPOCH": "2025-12-23T08:00:03.000384", "MEAN_MOTION": 15.56443545, "ECCENTRICITY": 0.00015059, "INCLINATION": 43.0003, "RA_OF_ASC_NODE": 59.0443, "ARG_OF_PERICENTER": 272.4026, "MEAN_ANOMALY": 75.6348, "EPHEMERIS_TYPE": 0, "CLASSIFICATION_TYPE": "U", "NORAD_CAT_ID": 66565, "ELEMENT_SET_NO": 999, "REV_AT_EPOCH": 610, "BSTAR": -0.0006098936, "MEAN_MOTION_DOT": -0.00044419, "MEAN_MOTION_DDOT": 0}, "tle": {"line1": "1 66565U 25268J   25357.33336806 -.00044419  00000+0 -60989-3 0  9993", "line2": "2 66565  43.0003  59.0443 0001505 272.4026  75.6348 15.56443545  6101"}}, "geometry": {"type": "Point", "coordinates": [-18.854195439185705, -42.081069575143445]}}, {"type": "Feature", "properties": {"norad_id": 66566, "name": "STARLINK-35871", "group": "last-30-days", "lat": -41.73028341511964, "lon": -16.32783932421347, "alt_km": 400.49738584477745, "timestamp": "2025-12-23T16:57:11.059277+00:00", "meta": {"OBJECT_NAME": "STARLINK-35871", "OBJECT_ID": "2025-268K", "EPOCH": "2025-12-23T08:00:03.000384", "MEAN_MOTION": 15.56476728, "ECCENTRICITY": 0.00014386, "INCLINATION": 43.0001, "RA_OF_ASC_NODE": 59.0397, "ARG_OF_PERICENTER": 265.2034, "MEAN_ANOMALY": 84.7451, "EPHEMERIS_TYPE": 0, "CLASSIFICATION_TYPE": "U", "NORAD_CAT_ID": 66566, "ELEMENT_SET_NO": 999, "REV_AT_EPOCH": 610, "BSTAR": -0.0016903024, "MEAN_MOTION_DOT": -0.00121432, "MEAN_MOTION_DDOT": 0}, "tle": {"line1": "1 66566U 25268K   25357.33336806 -.00121432  00000+0 -16903-2 0  9991", "line2": "2 66566  43.0001  59.0397 0001438 265.2034  84.7451 15.56476728  6107"}}, "geometry": {"type": "Point", "coordinates": [-16.32783932421347, -41.73028341511964]}}, {"type": "Feature", "properties": {"norad_id": 66567, "name": "STARLINK-35825", "group": "last-30-days", "lat": -41.32832785358302, "lon": -13.850945807582423, "alt_km": 400.6511546221018, "timestamp": "2025-12-23T16:57:11.059288+00:00", "meta": {"OBJECT_NAME": "STARLINK-35825", "OBJECT_ID": "2025-268L", "EPOCH": "2025-12-23T08:00:03.000384", "MEAN_MOTION": 15.56452252, "ECCENTRICITY": 0.00012412, "INCLINATION": 43.0002, "RA_OF_ASC_NODE": 59.0349, "ARG_OF_PERICENTER": 269.9075, "MEAN_ANOMALY": 81.9742, "EPHEMERIS_TYPE": 0, "CLASSIFICATION_TYPE": "U", "NORAD_CAT_ID": 66567, "ELEMENT_SET_NO": 999, "REV_AT_EPOCH": 610, "BSTAR": -0.0015621819, "MEAN_MOTION_DOT": -0.00112279, "MEAN_MOTION_DDOT": 0}, "tle": {"line1": "1 66567U 25268L   25357.33336806 -.00112279  00000+0 -15622-2 0  9998", "line2": "2 66567  43.0002  59.0349 0001241 269.9075  81.9742 15.56452252  6102"}}, "geometry": {"type": "Point", "coordinates": [-13.850945807582423, -41.32832785358302]}}, {"type": "Feature", "properties": {"norad_id": 66568, "name": "STARLINK-35803", "group": "last-30-days", "lat": -42.61016526954919, "lon": -42.31383349728049, "alt_km": 400.68909874609744, "timestamp": "2025-12-23T16:57:11.059298+00:00", "meta": {"OBJECT_NAME": "STARLINK-35803", "OBJECT_ID": "2025-268M", "EPOCH": "2025-12-23T08:00:03.000384", "MEAN_MOTION": 15.56339802, "ECCENTRICITY": 0.00011404, "INCLINATION": 43.0002, "RA_OF_ASC_NODE": 59.0836, "ARG_OF_PERICENTER": 262.2957, "MEAN_ANOMALY": 68.4783, "EPHEMERIS_TYPE": 0, "CLASSIFICATION_TYPE": "U", "NORAD_CAT_ID": 66568, "ELEMENT_SET_NO": 999, "REV_AT_EPOCH": 610, "BSTAR": 0.000958764, "MEAN_MOTION_DOT": 0.00069609, "MEAN_MOTION_DDOT": 0}, "tle": {"line1": "1 66568U 25268M   25357.33336806  .00069609  00000+0  95876-3 0  9995", "line2": "2 66568  43.0002  59.0836 0001140 262.2957  68.4783 15.56339802  6107"}}, "geometry": {"type": "Point", "coordinates": [-42.31383349728049, -42.61016526954919]}}, {"type": "Feature", "properties": {"norad_id": 66569, "name": "STARLINK-35835", "group": "last-30-days", "lat": -40.357560747325685, "lon": -8.951297543183358, "alt_km": 400.40973841930463, "timestamp": "2025-12-23T16:57:11.059309+00:00", "meta": {"OBJECT_NAME": "STARLINK-35835", "OBJECT_ID": "2025-268N", "EPOCH": "2025-12-23T08:00:03.000384", "MEAN_MOTION": 15.5648556, "ECCENTRICITY": 0.00015297, "INCLINATION": 43.0002, "RA_OF_ASC_NODE": 59.0248, "ARG_OF_PERICENTER": 273.5027, "MEAN_ANOMALY": 82.1982, "EPHEMERIS_TYPE": 0, "CLASSIFICATION_TYPE": "U", "NORAD_CAT_ID": 66569, "ELEMENT_SET_NO": 999, "REV_AT_EPOCH": 610, "BSTAR": -0.0021224769, "MEAN_MOTION_DOT": -0.00151861, "MEAN_MOTION_DDOT": 0}, "tle": {"line1": "1 66569U 25268N   25357.33336806 -.00151861  00000+0 -21225-2 0  9996", "line2": "2 66569  43.0002  59.0248 0001529 273.5027  82.1982 15.56485560  6106"}}, "geometry": {"type": "Point", "coordinates": [-8.951297543183358, -40.357560747325685]}}, {"type": "Feature", "properties": {"norad_id": 66570, "name": "STARLINK-35834", "group": "last-30-days", "lat": -37.56135178606883, "lon": -67.45123029659656, "alt_km": 431.73542104372973, "timestamp": "2025-12-23T16:57:11.059319+00:00", "meta": {"OBJECT_NAME": "STARLINK-35834", "OBJECT_ID": "2025-268P", "EPOCH": "2025-12-23T08:00:03.000384", "MEAN_MOTION": 15.47276071, "ECCENTRICITY": 0.00013305, "INCLINATION": 42.9995, "RA_OF_ASC_NODE": 59.1001, "ARG_OF_PERICENTER": 262.3412, "MEAN_ANOMALY": 61.9171, "EPHEMERIS_TYPE": 0, "CLASSIFICATION_TYPE": "U", "NORAD_CAT_ID": 66570, "ELEMENT_SET_NO": 999, "REV_AT_EPOCH": 610, "BSTAR": -0.043087612, "MEAN_MOTION_DOT": -0.02007287, "MEAN_MOTION_DDOT": 0}, "tle": {"line1": "1 66570U 25268P   25357.33336806 -.02007287  00000+0 -43088-1 0  9992", "line2": "2 66570  42.9995  59.1001 0001330 262.3412  61.9171 15.47276071  6109"}}, "geometry": {"type": "Point", "coordinates": [-67.45123029659656, -37.56135178606883]}}, {"type": "Feature", "properties": {"norad_id": 66571, "name": "STARLINK-35836", "group": "last-30-days", "lat": -40.489051350765244, "lon": -56.71248418644043, "alt_km": 429.5450348806835, "timestamp": "2025-12-23T16:57:11.059330+00:00", "meta": {"OBJECT_NAME": "STARLINK-35836", "OBJECT_ID": "2025-268Q", "EPOCH": "2025-12-23T08:00:03.000384", "MEAN_MOTION": 15.48126566, "ECCENTRICITY": 0.00012847, "INCLINATION": 42.9997, "RA_OF_ASC_NODE": 59.0826, "ARG_OF_PERICENTER": 267.4751, "MEAN_ANOMALY": 64.537, "EPHEMERIS_TYPE": 0, "CLASSIFICATION_TYPE": "U", "NORAD_CAT_ID": 66571, "ELEMENT_SET_NO": 999, "REV_AT_EPOCH": 611, "BSTAR": -0.043301375, "MEAN_MOTION_DOT": -0.02070606, "MEAN_MOTION_DDOT": 0}, "tle": {"line1": "1 66571U 25268Q   25357.33336806 -.02070606  00000+0 -43301-1 0  9996", "line2": "2 66571  42.9997  59.0826 0001284 267.4751  64.5370 15.48126566  6111"}}, "geometry": {"type": "Point", "coordinates": [-56.71248418644043, -40.489051350765244]}}, {"type": "Feature", "properties": {"norad_id": 66572, "name": "STARLINK-35870", "group": "last-30-days", "lat": -42.76860167455661, "lon": -40.07402357556529, "alt_km": 425.37534492772556, "timestamp": "2025-12-23T16:57:11.059340+00:00", "meta": {"OBJECT_NAME": "STARLINK-35870", "OBJECT_ID": "2025-268R", "EPOCH": "2025-12-23T08:00:03.000384", "MEAN_MOTION": 15.49578866, "ECCENTRICITY": 0.00012399, "INCLINATION": 43, "RA_OF_ASC_NODE": 59.0572, "ARG_OF_PERICENTER": 269.1439, "MEAN_ANOMALY": 73.5755, "EPHEMERIS_TYPE": 0, "CLASSIFICATION_TYPE": "U", "NORAD_CAT_ID": 66572, "ELEMENT_SET_NO": 999, "REV_AT_EPOCH": 611, "BSTAR": -0.041237517, "MEAN_MOTION_DOT": -0.02075595, "MEAN_MOTION_DDOT": 0}, "tle": {"line1": "1 66572U 25268R   25357.33336806 -.02075595  00000+0 -41238-1 0  9996", "line2": "2 66572  43.0000  59.0572 0001239 269.1439  73.5755 15.49578866  6111"}}, "geometry": {"type": "Point", "coordinates": [-40.07402357556529, -42.76860167455661]}}, {"type": "Feature", "properties": {"norad_id": 66573, "name": "STARLINK-35650", "group": "last-30-days", "lat": -42.93899135667856, "lon": -30.06928781675128, "alt_km": 422.8731693914333, "timestamp": "2025-12-23T16:57:11.059350+00:00", "meta": {"OBJECT_NAME": "STARLINK-35650", "OBJECT_ID": "2025-268S", "EPOCH": "2025-12-23T08:00:03.000384", "MEAN_MOTION": 15.5041165, "ECCENTRICITY": 0.00013413, "INCLINATION": 43.0004, "RA_OF_ASC_NODE": 59.0412, "ARG_OF_PERICENTER": 259.1307, "MEAN_ANOMALY": 89.8147, "EPHEMERIS_TYPE": 0, "CLASSIFICATION_TYPE": "U", "NORAD_CAT_ID": 66573, "ELEMENT_SET_NO": 999, "REV_AT_EPOCH": 611, "BSTAR": -0.039894207, "MEAN_MOTION_DOT": -0.02069565, "MEAN_MOTION_DDOT": 0}, "tle": {"line1": "1 66573U 25268S   25357.33336806 -.02069565  00000+0 -39894-1 0  9992", "line2": "2 66573  43.0004  59.0412 0001341 259.1307  89.8147 15.50411650  6110"}}, "geometry": {"type": "Point", "coordinates": [-30.06928781675128, -42.93899135667856]}}]}